NORAD_CAT_ID,OBJECT_NAME,OBJECT_TYPE,EPOCH,MEAN_MOTION,ECCENTRICITY,INCLINATION,RA_OF_ASC_NODE,ARG_OF_PERICENTER,MEAN_ANOMALY,BSTAR,MEAN_MOTION_DOT,MEAN_MOTION_DDOT,TLE_LINE0,TLE_LINE1,TLE_LINE2,SEMIMAJOR_AXIS,PERIOD,APOGEE,PERIGEE,DECAYED
53630.0,STARLINK-4598,PAYLOAD,2024-04-11 07:26:48,15.08833489,0.0001548,53.2172,114.85,98.259,261.8578,-8.4778e-06,-4.23e-06,0.0,0 STARLINK-4598,1 53630U 22104AU  24102.31027976 -.00000423  00000-0 -84778-5 0  9990,2 53630  53.2172 114.8500 0001548  98.2590 261.8578 15.08833489 90789,6917.9,95.438,540.836,538.694,0.0
53630.0,STARLINK-4598,PAYLOAD,2024-04-12 10:28:21,15.08835889,0.0001637,53.2184,109.7954,99.8669,260.2508,4.8454e-06,-2.11e-06,0.0,0 STARLINK-4598,1 53630U 22104AU  24103.43636236 -.00000211  00000-0  48454-5 0  9994,2 53630  53.2184 109.7954 0001637  99.8669 260.2508 15.08835889 90097,6917.893,95.438,540.89,538.625,0.0
53630.0,STARLINK-4598,PAYLOAD,2024-04-13 07:08:22,15.08833088,0.0001347,53.2167,105.9284,95.6951,264.4195,9.2216e-05,1.18e-05,0.0,0 STARLINK-4598,1 53630U 22104AU  24104.29748519  .00001180  00000-0  92216-4 0  9996,2 53630  53.2167 105.9284 0001347  95.6951 264.4195 15.08833088 91085,6917.902,95.438,540.698,538.835,0.0
53630.0,STARLINK-4598,PAYLOAD,2024-04-14 03:48:23,15.08839666,0.0001332,53.2169,102.0631,96.6698,263.4446,0.00010673,1.411e-05,0.0,0 STARLINK-4598,1 53630U 22104AU  24105.15860406  .00001411  00000-0  10673-3 0  9995,2 53630  53.2169 102.0631 0001332  96.6698 263.4446 15.08839666 90359,6917.881,95.438,540.668,538.825,0.0
53630.0,STARLINK-4598,PAYLOAD,2024-04-14 10:09:55,15.08841249,0.000134,53.2168,100.8734,97.1886,262.9258,0.00011537,1.549e-05,0.0,0 STARLINK-4598,1 53630U 22104AU  24105.42356320  .00001549  00000-0  11537-3 0  9992,2 53630  53.2168 100.8734 0001340  97.1886 262.9258 15.08841249 91257,6917.877,95.437,540.669,538.815,0.0
53630.0,STARLINK-4598,PAYLOAD,2024-04-15 03:39:11,15.08833517,0.0001305,53.2163,97.5976,82.1012,278.0128,4.6629e-05,4.54e-06,0.0,0 STARLINK-4598,1 53630U 22104AU  24106.15221375  .00000454  00000-0  46629-4 0  9999,2 53630  53.2163  97.5976 0001305  82.1012 278.0128 15.08833517 90508,6917.9,95.438,540.668,538.862,0.0
53630.0,STARLINK-4598,PAYLOAD,2024-04-15 08:25:20,15.08831767,0.0001331,53.2167,96.7066,93.0994,267.015,2.2394e-05,6.8e-07,0.0,0 STARLINK-4598,1 53630U 22104AU  24106.35093548  .00000068  00000-0  22394-4 0  9994,2 53630  53.2167  96.7066 0001331  93.0994 267.0150 15.08831767 91398,6917.906,95.438,540.691,538.85,0.0
53630.0,STARLINK-4598,PAYLOAD,2024-04-16 03:29:57,15.08844548,0.0001286,53.2164,93.1366,88.267,271.847,0.00015138,2.122e-05,0.0,0 STARLINK-4598,1 53630U 22104AU  24107.14580480  .00002122  00000-0  15138-3 0  9998,2 53630  53.2164  93.1366 0001286  88.2670 271.8470 15.08844548 90652,6917.866,95.437,540.621,538.842,0.0
53630.0,STARLINK-4598,PAYLOAD,2024-04-16 06:40:43,15.08856945,0.0001382,53.2175,92.5448,96.6109,263.504,0.00015123,2.121e-05,0.0,0 STARLINK-4598,1 53630U 22104AU  24107.27827835  .00002121  00000-0  15123-3 0  9993,2 53630  53.2175  92.5448 0001382  96.6109 263.5040 15.08856945 90672,6917.829,95.436,540.65,538.738,0.0
53630.0,STARLINK-4598,PAYLOAD,2024-04-16 16:13:01,15.08867037,0.0001448,53.218,90.7583,88.6948,271.421,0.00036073,5.462e-05,0.0,0 STARLINK-4598,1 53630U 22104AU  24107.67570642  .00005462  00000-0  36073-3 0  9996,2 53630  53.2180  90.7583 0001448  88.6948 271.4210 15.08867037 90731,6917.798,95.436,540.664,538.661,0.0
53630.0,STARLINK-4598,PAYLOAD,2024-04-17 04:56:07,15.08845462,0.0001197,53.2165,88.3853,85.8529,274.26,0.00019641,2.84e-05,0.0,0 STARLINK-4598,1 53630U 22104AU  24108.20564298  .00002840  00000-0  19641-3 0  9995,2 53630  53.2165  88.3853 0001197  85.8529 274.2600 15.08845462 90813,6917.864,95.437,540.557,538.901,0.0
53630.0,STARLINK-4598,PAYLOAD,2024-04-17 08:06:53,15.08852864,0.0001591,53.2169,87.7871,92.6803,267.4371,0.00024938,3.684e-05,0.0,0 STARLINK-4598,1 53630U 22104AU  24108.33811913  .00003684  00000-0  24938-3 0  9990,2 53630  53.2169  87.7871 0001591  92.6803 267.4371 15.08852864 91699,6917.841,95.437,540.807,538.605,0.0
53630.0,STARLINK-4598,PAYLOAD,2024-04-18 04:46:54,15.08836884,0.0001122,53.2172,83.9216,99.8792,260.2327,-0.0001266,-2.302e-05,0.0,0 STARLINK-4598,1 53630U 22104AU  24109.19924121 -.00002302  00000-0 -12660-3 0  9998,2 53630  53.2172  83.9216 0001122  99.8792 260.2327 15.08836884 90965,6917.89,95.438,540.531,538.979,0.0
53630.0,STARLINK-4598,PAYLOAD,2024-04-18 07:57:40,15.08834766,0.0001146,53.2169,83.3292,97.6133,262.4989,-9.3589e-05,-1.777e-05,0.0,0 STARLINK-4598,1 53630U 22104AU  24109.33172317 -.00001777  00000-0 -93589-4 0  9991,2 53630  53.2169  83.3292 0001146  97.6133 262.4989 15.08834766 91843,6917.896,95.438,540.554,538.969,0.0
53630.0,STARLINK-4598,PAYLOAD,2024-04-19 07:48:28,15.08842897,0.0001079,53.2159,78.8676,97.1347,262.9768,0.00031833,4.782e-05,0.0,0 STARLINK-4598,1 53630U 22104AU  24110.32532851  .00004782  00000-0  31833-3 0  9995,2 53630  53.2159  78.8676 0001079  97.1347 262.9768 15.08842897 91130,6917.872,95.437,540.483,538.99,0.0
53630.0,STARLINK-4598,PAYLOAD,2024-04-20 04:28:28,15.08858004,0.0001277,53.2165,75.0009,91.9764,268.1374,0.00056216,8.675e-05,0.0,0 STARLINK-4598,1 53630U 22104AU  24111.18644421  .00008675  00000-0  56216-3 0  9994,2 53630  53.2165  75.0009 0001277  91.9764 268.1374 15.08858004 92129,6917.825,95.436,540.574,538.807,0.0
53630.0,STARLINK-4598,PAYLOAD,2024-04-20 21:57:43,15.08834822,0.0001477,53.2178,71.7288,106.6185,253.4969,-5.5423e-05,-1.17e-05,0.0,0 STARLINK-4598,1 53630U 22104AU  24111.91509082 -.00001170  00000-0 -55423-4 0  9993,2 53630  53.2178  71.7288 0001477 106.6185 253.4969 15.08834822 92239,6917.896,95.438,540.783,538.739,0.0
53630.0,STARLINK-4598,PAYLOAD,2024-04-21 04:19:17,15.08797423,0.0001905,53.2176,70.5402,107.4274,252.6926,-0.0010237,-0.00016525,0.0,0 STARLINK-4598,1 53630U 22104AU  24112.18006096 -.00016525  00000-0 -10237-2 0  9992,2 53630  53.2176  70.5402 0001905 107.4274 252.6926 15.08797423 91414,6918.011,95.44,541.193,538.558,0.0
53630.0,STARLINK-4598,PAYLOAD,2024-04-22 02:34:41,15.08863338,0.0002464,53.2181,66.3797,127.5233,232.5984,0.0015519,0.00024513,0.0,0 STARLINK-4598,1 53630U 22104AU  24113.10742299  .00024513  00000-0  15519-2 0  9999,2 53630  53.2181  66.3797 0002464 127.5233 232.5984 15.08863338 91554,6917.809,95.436,541.379,537.97,0.0
53630.0,STARLINK-4598,PAYLOAD,2024-04-22 20:03:55,15.0886935,0.0002757,53.2183,63.1126,120.4858,239.6407,0.00069863,0.00010857,0.0,0 STARLINK-4598,1 53630U 22104AU  24113.83605384  .00010857  00000-0  69863-3 0  9990,2 53630  53.2183  63.1126 0002757 120.4858 239.6407 15.08869350 91667,6917.791,95.436,541.563,537.748,0.0
53630.0,STARLINK-4598,PAYLOAD,2024-04-23 04:00:51,15.08841313,0.0001741,53.2176,61.6225,103.9159,256.2027,-0.00040469,-6.723e-05,0.0,0 STARLINK-4598,1 53630U 22104AU  24114.16725918 -.00006723  00000-0 -40469-3 0  9993,2 53630  53.2176  61.6225 0001741 103.9159 256.2027 15.08841313 91712,6917.876,95.437,540.946,538.537,0.0
53630.0,STARLINK-4598,PAYLOAD,2024-04-23 05:36:14,15.08842855,0.0001761,53.2175,61.324,111.3342,248.7839,-0.00038973,-6.486e-05,0.0,0 STARLINK-4598,1 53630U 22104AU  24114.23349822 -.00006486  00000-0 -38973-3 0  9990,2 53630  53.2175  61.3240 0001761 111.3342 248.7839 15.08842855 92589,6917.872,95.437,540.955,538.518,0.0
53630.0,STARLINK-4598,PAYLOAD,2024-04-24 03:51:38,15.088458,0.0001693,53.218,57.1623,100.6073,259.511,0.00063549,9.842e-05,0.0,0 STARLINK-4598,1 53630U 22104AU  24115.16086100  .00009842  00000-0  63549-3 0  9994,2 53630  53.2180  57.1623 0001693 100.6073 259.5110 15.08845800 91864,6917.863,95.437,540.899,538.556,0.0
53630.0,STARLINK-4598,PAYLOAD,2024-04-25 02:07:02,15.08845712,0.0001532,53.2184,52.9995,94.425,265.6917,0.00017947,2.57e-05,0.0,0 STARLINK-4598,1 53630U 22104AU  24116.08821923  .00002570  00000-0  17947-3 0  9998,2 53630  53.2184  52.9995 0001532  94.4250 265.6917 15.08845712 92004,6917.863,95.437,540.788,538.668,0.0
53630.0,STARLINK-4598,PAYLOAD,2024-04-25 22:47:03,15.08841818,0.0001573,53.2191,49.1369,89.1157,271.0015,3.8084e-05,3.18e-06,0.0,0 STARLINK-4598,1 53630U 22104AU  24116.94934151  .00000318  00000-0  38084-4 0  9995,2 53630  53.2191  49.1369 0001573  89.1157 271.0015 15.08841818 92998,6917.875,95.437,540.828,538.652,0.0
53630.0,STARLINK-4598,PAYLOAD,2024-04-26 01:57:49,15.08842698,0.0001514,53.2186,48.5429,92.3611,267.7554,1.8368e-05,4e-08,0.0,0 STARLINK-4598,1 53630U 22104AU  24117.08182128  .00000004  00000-0  18368-4 0  9995,2 53630  53.2186  48.5429 0001514  92.3611 267.7554 15.08842698 92153,6917.872,95.437,540.785,538.69,0.0
53630.0,STARLINK-4598,PAYLOAD,2024-04-27 04:59:22,15.08850001,0.0001339,53.2177,43.4809,83.8154,276.299,0.00024441,3.605e-05,0.0,0 STARLINK-4598,1 53630U 22104AU  24118.20789466  .00003605  00000-0  24441-3 0  9996,2 53630  53.2177  43.4809 0001339  83.8154 276.2990 15.08850001 92326,6917.85,95.437,540.641,538.789,0.0
53630.0,STARLINK-4598,PAYLOAD,2024-04-27 22:28:37,15.08834152,0.0001643,53.2178,40.2093,128.0884,232.0257,-5.0173e-05,-1.086e-05,0.0,0 STARLINK-4598,1 53630U 22104AU  24118.93654141 -.00001086  00000-0 -50173-4 0  9992,2 53630  53.2178  40.2093 0001643 128.0884 232.0257 15.08834152 93299,6917.898,95.438,540.9,538.627,0.0
53630.0,STARLINK-4598,PAYLOAD,2024-04-28 04:50:10,15.08826793,0.0001185,53.2182,39.0232,108.067,252.0452,-0.00013718,-2.47e-05,0.0,0 STARLINK-4598,1 53630U 22104AU  24119.20150785 -.00002470  00000-0 -13718-3 0  9999,2 53630  53.2182  39.0232 0001185 108.0670 252.0452 15.08826793 92477,6917.921,95.438,540.606,538.966,0.0
53630.0,STARLINK-4598,PAYLOAD,2024-04-28 11:11:42,15.08831089,0.0001339,53.2194,37.8355,106.2013,253.9126,-7.81e-05,-1.53e-05,0.0,0 STARLINK-4598,1 53630U 22104AU  24119.46646743 -.00001530  00000-0 -78100-4 0  9994,2 53630  53.2194  37.8355 0001339 106.2013 253.9126 15.08831089 93376,6917.908,95.438,540.699,538.846,0.0
